[{"OBJECT_NAME":"OBJECT D","OBJECT_ID":"2024-092D","EPOCH":"2026-03-09T21:12:33.501312","MEAN_MOTION":15.33078357,"ECCENTRICITY":0.00083397,"INCLINATION":97.6418,"RA_OF_ASC_NODE":198.2302,"ARG_OF_PERICENTER":141.9853,"MEAN_ANOMALY":218.1979,"EPHEMERIS_TYPE":0,"CLASSIFICATION_TYPE":"U","NORAD_CAT_ID":59776,"ELEMENT_SET_NO":999,"REV_AT_EPOCH":10051,"BSTAR":0.00076511005,"MEAN_MOTION_DOT":0.00024443,"MEAN_MOTION_DDOT":0},{"OBJECT_NAME":"STARLINK-35534","OBJECT_ID":"2025-243AB","EPOCH":"2026-03-09T18:01:52.919616","MEAN_MOTION":15.30197677,"ECCENTRICITY":8.266e-5,"INCLINATION":53.1599,"RA_OF_ASC_NODE":244.9327,"ARG_OF_PERICENTER":53.007,"MEAN_ANOMALY":307.1007,"EPHEMERIS_TYPE":0,"CLASSIFICATION_TYPE":"U","NORAD_CAT_ID":66202,"ELEMENT_SET_NO":999,"REV_AT_EPOCH":2066,"BSTAR":0.00092720001,"MEAN_MOTION_DOT":0.000272,"MEAN_MOTION_DDOT":0}]
